DELTA 2 R/B(1)          
1 20453U 90008B   26051.03615638  .00059819  00000+0  76331-3 0  9991
2 20453  35.6041 290.4831 0089079  93.9818 267.1105 15.53431371923383
COSMOS 2058             
1 20465U 90010A   26051.43278360  .00003491  00000+0  20626-3 0  9999
2 20465  82.4663  64.4285 0010715  42.0344 318.1706 15.11153110939633
SL-14 R/B               
1 20466U 90010B   26051.69028140  .00000340  00000+0  38344-4 0  9994
2 20466  82.5006 283.3594 0019827   0.4362 359.6866 14.83553323925968
SL-14 R/B               
1 20511U 90018B   26051.55669872  .00000411  00000+0  48523-4 0  9990
2 20511  82.5179 239.1062 0017141 144.4223 215.8138 14.82124666920043
HST                     
1 20580U 90037B   26051.51930012  .00006926  00000+0  22977-3 0  9991
2 20580  28.4685 157.1051 0001111 279.1757  80.8713 15.29189338770686
COSMOS 2084             
1 20663U 90055A   26051.38706632  .00002264  00000+0  16998-3 0  9994
2 20663  62.7907  34.5839 0019748 186.1327 173.9535 15.05528907933717
SL-6 R/B(2)             
1 20666U 90055D   26051.08018885  .00001950  00000+0  15621-3 0  9993
2 20666  62.7839 313.7316 0022125 342.4074  17.6256 15.03503984935548
SL-8 R/B                
1 20775U 90078B   26051.57126560  .00012505  00000+0  36653-3 0  9999
2 20775  82.9000 266.7004 0365777  71.3987 292.6583 14.88457299806755
