CCSDS_OMM_VERS = 2.0
CREATION_DATE  = 
ORIGINATOR     = 

OBJECT_NAME    = DELTA 2 R/B(1)
OBJECT_ID      = 1990-008B
CENTER_NAME    = EARTH
REF_FRAME      = TEME
TIME_SYSTEM    = UTC
MEAN_ELEMENT_THEORY = SGP/SGP4

EPOCH          = 2026-02-20T00:52:03.911232
MEAN_MOTION    = 15.53431371
ECCENTRICITY   = .00890792
INCLINATION    = 35.6041
RA_OF_ASC_NODE = 290.4831
ARG_OF_PERICENTER = 93.9818
MEAN_ANOMALY   = 267.1105

EPHEMERIS_TYPE = 0
CLASSIFICATION_TYPE = U
NORAD_CAT_ID   = 20453
ELEMENT_SET_NO = 999
REV_AT_EPOCH   = 92338
BSTAR          = .763311E-3
MEAN_MOTION_DOT = .59819E-3
MEAN_MOTION_DDOT = 0

CCSDS_OMM_VERS = 2.0
CREATION_DATE  = 
ORIGINATOR     = 

OBJECT_NAME    = COSMOS 2058
OBJECT_ID      = 1990-010A
CENTER_NAME    = EARTH
REF_FRAME      = TEME
TIME_SYSTEM    = UTC
MEAN_ELEMENT_THEORY = SGP/SGP4

EPOCH          = 2026-02-20T10:23:12.503040
MEAN_MOTION    = 15.11153110
ECCENTRICITY   = .0010715
INCLINATION    = 82.4663
RA_OF_ASC_NODE = 64.4285
ARG_OF_PERICENTER = 42.0344
MEAN_ANOMALY   = 318.1706

EPHEMERIS_TYPE = 0
CLASSIFICATION_TYPE = U
NORAD_CAT_ID   = 20465
ELEMENT_SET_NO = 999
REV_AT_EPOCH   = 93963
BSTAR          = .20626E-3
MEAN_MOTION_DOT = .3491E-4
MEAN_MOTION_DDOT = 0

CCSDS_OMM_VERS = 2.0
CREATION_DATE  = 
ORIGINATOR     = 

OBJECT_NAME    = SL-14 R/B
OBJECT_ID      = 1990-010B
CENTER_NAME    = EARTH
REF_FRAME      = TEME
TIME_SYSTEM    = UTC
MEAN_ELEMENT_THEORY = SGP/SGP4

EPOCH          = 2026-02-20T16:34:00.312960
MEAN_MOTION    = 14.83553323
ECCENTRICITY   = .0019827
INCLINATION    = 82.5006
RA_OF_ASC_NODE = 283.3594
ARG_OF_PERICENTER = 0.4362
MEAN_ANOMALY   = 359.6866

EPHEMERIS_TYPE = 0
CLASSIFICATION_TYPE = U
NORAD_CAT_ID   = 20466
ELEMENT_SET_NO = 999
REV_AT_EPOCH   = 92596
BSTAR          = .38344E-4
MEAN_MOTION_DOT = .34E-5
MEAN_MOTION_DDOT = 0

CCSDS_OMM_VERS = 2.0
CREATION_DATE  = 
ORIGINATOR     = 

OBJECT_NAME    = SL-14 R/B
OBJECT_ID      = 1990-018B
CENTER_NAME    = EARTH
REF_FRAME      = TEME
TIME_SYSTEM    = UTC
MEAN_ELEMENT_THEORY = SGP/SGP4

EPOCH          = 2026-02-20T13:21:38.769408
MEAN_MOTION    = 14.82124666
ECCENTRICITY   = .0017141
INCLINATION    = 82.5179
RA_OF_ASC_NODE = 239.1062
ARG_OF_PERICENTER = 144.4223
MEAN_ANOMALY   = 215.8138

EPHEMERIS_TYPE = 0
CLASSIFICATION_TYPE = U
NORAD_CAT_ID   = 20511
ELEMENT_SET_NO = 999
REV_AT_EPOCH   = 92004
BSTAR          = .48523E-4
MEAN_MOTION_DOT = .411E-5
MEAN_MOTION_DDOT = 0

CCSDS_OMM_VERS = 2.0
CREATION_DATE  = 
ORIGINATOR     = 

OBJECT_NAME    = HST
OBJECT_ID      = 1990-037B
CENTER_NAME    = EARTH
REF_FRAME      = TEME
TIME_SYSTEM    = UTC
MEAN_ELEMENT_THEORY = SGP/SGP4

EPOCH          = 2026-02-20T12:27:47.530368
MEAN_MOTION    = 15.29189338
ECCENTRICITY   = .0001111
INCLINATION    = 28.4685
RA_OF_ASC_NODE = 157.1051
ARG_OF_PERICENTER = 279.1757
MEAN_ANOMALY   = 80.8713

EPHEMERIS_TYPE = 0
CLASSIFICATION_TYPE = U
NORAD_CAT_ID   = 20580
ELEMENT_SET_NO = 999
REV_AT_EPOCH   = 77068
BSTAR          = .22977E-3
MEAN_MOTION_DOT = .6926E-4
MEAN_MOTION_DDOT = 0

CCSDS_OMM_VERS = 2.0
CREATION_DATE  = 
ORIGINATOR     = 

OBJECT_NAME    = COSMOS 2084
OBJECT_ID      = 1990-055A
CENTER_NAME    = EARTH
REF_FRAME      = TEME
TIME_SYSTEM    = UTC
MEAN_ELEMENT_THEORY = SGP/SGP4

EPOCH          = 2026-02-20T09:17:22.530048
MEAN_MOTION    = 15.05528907
ECCENTRICITY   = .0019748
INCLINATION    = 62.7907
RA_OF_ASC_NODE = 34.5839
ARG_OF_PERICENTER = 186.1327
MEAN_ANOMALY   = 173.9535

EPHEMERIS_TYPE = 0
CLASSIFICATION_TYPE = U
NORAD_CAT_ID   = 20663
ELEMENT_SET_NO = 999
REV_AT_EPOCH   = 93371
BSTAR          = .16998E-3
MEAN_MOTION_DOT = .2264E-4
MEAN_MOTION_DDOT = 0

CCSDS_OMM_VERS = 2.0
CREATION_DATE  = 
ORIGINATOR     = 

OBJECT_NAME    = SL-6 R/B(2)
OBJECT_ID      = 1990-055D
CENTER_NAME    = EARTH
REF_FRAME      = TEME
TIME_SYSTEM    = UTC
MEAN_ELEMENT_THEORY = SGP/SGP4

EPOCH          = 2026-02-20T01:55:28.316640
MEAN_MOTION    = 15.03503984
ECCENTRICITY   = .00221251
INCLINATION    = 62.7839
RA_OF_ASC_NODE = 313.7316
ARG_OF_PERICENTER = 342.4074
MEAN_ANOMALY   = 17.6256

EPHEMERIS_TYPE = 0
CLASSIFICATION_TYPE = U
NORAD_CAT_ID   = 20666
ELEMENT_SET_NO = 999
REV_AT_EPOCH   = 93554
BSTAR          = .15620576E-3
MEAN_MOTION_DOT = .195E-4
MEAN_MOTION_DDOT = 0

CCSDS_OMM_VERS = 2.0
CREATION_DATE  = 
ORIGINATOR     = 

OBJECT_NAME    = SL-8 R/B
OBJECT_ID      = 1990-078B
CENTER_NAME    = EARTH
REF_FRAME      = TEME
TIME_SYSTEM    = UTC
MEAN_ELEMENT_THEORY = SGP/SGP4

EPOCH          = 2026-02-20T13:42:37.347840
MEAN_MOTION    = 14.88457299
ECCENTRICITY   = .0365777
INCLINATION    = 82.9000
RA_OF_ASC_NODE = 266.7004
ARG_OF_PERICENTER = 71.3987
MEAN_ANOMALY   = 292.6583

EPHEMERIS_TYPE = 0
CLASSIFICATION_TYPE = U
NORAD_CAT_ID   = 20775
ELEMENT_SET_NO = 999
REV_AT_EPOCH   = 80675
BSTAR          = .36653E-3
MEAN_MOTION_DOT = .12505E-3
MEAN_MOTION_DDOT = 0

